457P/Lemmon-PANSTARRS,e,5.2254,175.9749,104.4484,2.645930,0.2290006,0.11877190,281.3306,09/12.0/2023,2000,g 15.5,4.0
# From MPEC 2023-HD1
458P/Jahn,e,13.6282,1.5877,104.8030,3.856569,0.1301375,0.31695941,41.2298,09/12.0/2023,2000,g 17.3,4.0
# From MPEC 2023-Q33
459P/Catalina,e,7.1721,256.9942,205.1885,3.239090,0.1690711,0.57761253,34.2552,09/12.0/2023,2000,g 15.5,4.0
# From MPEC 2023-G14
460P/PANSTARRS,e,18.8948,180.5155,351.9646,3.027080,0.1871407,0.66406338,152.9719,09/12.0/2023,2000,g 21.0,4.0
# From MPEC 2023-J95
461P/WISE,e,18.4122,194.3757,174.8149,3.142756,0.1769042,0.57028798,125.0829,09/12.0/2023,2000,g 18.5,4.0
# From MPEC 2023-JA3
462P/LONEOS-PANSTARRS,e,7.0244,322.8248,4.4139,4.883322,0.0913337,0.57836932,37.0734,09/12.0/2023,2000,g 17.0,4.0
# From MPEC 2023-Q33
463P/NEOWISE,e,29.2799,283.2090,216.3649,2.974677,0.1921075,0.82555797,31.9629,09/12.0/2023,2000,g 18.0,4.0
# From MPEC 2023-Q33
464P/PANSTARRS,e,21.6643,309.5869,267.6823,4.687769,0.0971079,0.28059042,19.0282,09/12.0/2023,2000,g 10.5,4.0
# From MPEC 2023-Q33
465P/Hill,e,25.8708,218.0114,141.2342,6.039438,0.0664063,0.61424516,8.3086,09/12.0/2023,2000,g 12.5,4.0
# From MPEC 2023-R20
466P/PANSTARRS,e,12.2357,119.8657,196.7139,4.042432,0.1212663,0.46697157,15.9229,09/12.0/2023,2000,g 14.0,4.0
# From MPC107687
1I/`Oumuamua,h,09/09.4886/2017,122.6778,24.5997,241.6845,1.199252,0.255240,2000,23.0,2.0
# From MPEC 2023-L37
2I/Borisov,h,12/08.5548/2019,44.0527,308.1480,209.1251,3.356633,2.006548,2000,11.0,4.0
